[Satellite]
VERSION=1.1
NAME=BEIDOU-3 G2
NICKNAME=BEIDOU-3 G2
TLE1=1 45344U 20017A   20099.59771354 -.00000161  00000-0  00000-0 0  9990
TLE2=2 45344   3.0720 327.2329 0002651  52.0970 113.1707  1.00271530   604
STATUS=0
